start=new Date('2022-07-01T00:00:00.000Z').valueOf();
sats=[{"NORAD_CAT_ID":"45392","RCS_SIZE":"LARGE","SITE":"AFETR","SEMIMAJOR_AXIS":"6901.378","OBJECT_TYPE":"PAYLOAD","MEAN_MOTION_DDOT":"0.0000000000000","REV_AT_EPOCH":"12670","ARG_OF_PERICENTER":"78.0831","LAUNCH_DATE":"2020-03-18","CLASSIFICATION_TYPE":"U","RA_OF_ASC_NODE":"65.3818","TLE_LINE2":"2 45392  52.9958  65.3818 0003199  78.0831 282.0519 15.14255041126704","MEAN_MOTION":"15.14255041","ECCENTRICITY":"0.00031990","REF_FRAME":"TEME","FILE":"3505946","CENTER_NAME":"EARTH","MEAN_ANOMALY":"282.0519","MEAN_MOTION_DOT":"0.00008625","COUNTRY_CODE":"US","MEAN_ELEMENT_THEORY":"SGP4","BSTAR":"0.00048205000000","GP_ID":"207174799","OBJECT_NAME":"STARLINK-1290","EPHEMERIS_TYPE":"0","TIME_SYSTEM":"UTC","PERIAPSIS":"521.035","DECAY_DATE":null,"TLE_LINE1":"1 45392U 20019AJ  22181.90116837  .00008625  00000-0  48205-3 0  9997","PERIOD":"95.096","OBJECT_ID":"2020-019AJ","APOAPSIS":"525.451","ELEMENT_SET_NO":"999","INCLINATION":"52.9958","EPOCH":"2022-06-30T21:37:40.947168"},{"TLE_LINE1":"1 45393U 20019AK  22181.89332547  .00002591  00000-0  19280-3 0  9991","DECAY_DATE":null,"OBJECT_ID":"2020-019AK","APOAPSIS":"548.157","PERIOD":"95.592","ELEMENT_SET_NO":"999","INCLINATION":"53.0551","EPOCH":"2022-06-30T21:26:23.320608","MEAN_MOTION_DOT":"0.00002591","COUNTRY_CODE":"US","BSTAR":"0.00019280000000","MEAN_ELEMENT_THEORY":"SGP4","EPHEMERIS_TYPE":"0","OBJECT_NAME":"STARLINK-1291","TIME_SYSTEM":"UTC","GP_ID":"207173549","PERIAPSIS":"546.269","ARG_OF_PERICENTER":"79.9754","REV_AT_EPOCH":"12662","CLASSIFICATION_TYPE":"U","LAUNCH_DATE":"2020-03-18","TLE_LINE2":"2 45393  53.0551  77.1107 0001363  79.9754 280.1389 15.06400047126627","MEAN_MOTION":"15.06400047","RA_OF_ASC_NODE":"77.1107","ECCENTRICITY":"0.00013630","FILE":"3505946","REF_FRAME":"TEME","MEAN_ANOMALY":"280.1389","CENTER_NAME":"EARTH","NORAD_CAT_ID":"45393","SITE":"AFETR","RCS_SIZE":"LARGE","SEMIMAJOR_AXIS":"6925.348","OBJECT_TYPE":"PAYLOAD","MEAN_MOTION_DDOT":"0.0000000000000"},{"PERIOD":"95.592","APOAPSIS":"548.180","OBJECT_ID":"2020-019AL","DECAY_DATE":null,"TLE_LINE1":"1 45394U 20019AL  22181.85647175  .00001406  00000-0  11327-3 0  9992","ELEMENT_SET_NO":"999","EPOCH":"2022-06-30T20:33:19.159200","INCLINATION":"53.0561","MEAN_MOTION_DOT":"0.00001406","MEAN_ELEMENT_THEORY":"SGP4","BSTAR":"0.00011327000000","COUNTRY_CODE":"US","PERIAPSIS":"546.275","GP_ID":"207173799","OBJECT_NAME":"STARLINK-1292","EPHEMERIS_TYPE":"0","TIME_SYSTEM":"UTC","REV_AT_EPOCH":"12659","ARG_OF_PERICENTER":"79.0204","RA_OF_ASC_NODE":"77.2861","MEAN_MOTION":"15.06395390","TLE_LINE2":"2 45394  53.0561  77.2861 0001375  79.0204 281.0940 15.06395390126594","CLASSIFICATION_TYPE":"U","LAUNCH_DATE":"2020-03-18","ECCENTRICITY":"0.00013750","CENTER_NAME":"EARTH","MEAN_ANOMALY":"281.0940","REF_FRAME":"TEME","FILE":"3505946","SITE":"AFETR","RCS_SIZE":"LARGE","NORAD_CAT_ID":"45394","OBJECT_TYPE":"PAYLOAD","SEMIMAJOR_AXIS":"6925.363","MEAN_MOTION_DDOT":"0.0000000000000"},{"ECCENTRICITY":"0.00014640","FILE":"3505946","REF_FRAME":"TEME","CENTER_NAME":"EARTH","MEAN_ANOMALY":"278.5169","ARG_OF_PERICENTER":"81.5986","REV_AT_EPOCH":"12604","LAUNCH_DATE":"2020-03-18","CLASSIFICATION_TYPE":"U","MEAN_MOTION":"15.06399460","TLE_LINE2":"2 45395  53.0537  77.1459 0001464  81.5986 278.5169 15.06399460126040","RA_OF_ASC_NODE":"77.1459","MEAN_MOTION_DDOT":"0.0000000000000","NORAD_CAT_ID":"45395","RCS_SIZE":"LARGE","SITE":"AFETR","SEMIMAJOR_AXIS":"6925.350","OBJECT_TYPE":"PAYLOAD","ELEMENT_SET_NO":"999","INCLINATION":"53.0537","EPOCH":"2022-06-30T21:15:47.304288","TLE_LINE1":"1 45395U 20019AM  22181.88596417  .00001642  00000-0  12912-3 0  9991","DECAY_DATE":null,"APOAPSIS":"548.229","OBJECT_ID":"2020-019AM","PERIOD":"95.592","COUNTRY_CODE":"US","BSTAR":"0.00012912000000","MEAN_ELEMENT_THEORY":"SGP4","EPHEMERIS_TYPE":"0","TIME_SYSTEM":"UTC","OBJECT_NAME":"STARLINK-1297","GP_ID":"207174551","PERIAPSIS":"546.201","MEAN_MOTION_DOT":"0.00001642"},{"NORAD_CAT_ID":"45396","SITE":"AFETR","RCS_SIZE":"LARGE","SEMIMAJOR_AXIS":"6925.348","OBJECT_TYPE":"PAYLOAD","MEAN_MOTION_DDOT":"0.0000000000000","REV_AT_EPOCH":"12657","ARG_OF_PERICENTER":"77.4899","LAUNCH_DATE":"2020-03-18","CLASSIFICATION_TYPE":"U","RA_OF_ASC_NODE":"77.2206","MEAN_MOTION":"15.06400259","TLE_LINE2":"2 45396  53.0553  77.2206 0001512  77.4899 282.6259 15.06400259126574","ECCENTRICITY":"0.00015120","REF_FRAME":"TEME","FILE":"3505946","CENTER_NAME":"EARTH","MEAN_ANOMALY":"282.6259","MEAN_MOTION_DOT":"0.00001844","COUNTRY_CODE":"US","MEAN_ELEMENT_THEORY":"SGP4","BSTAR":"0.00014265000000","GP_ID":"207175299","EPHEMERIS_TYPE":"0","OBJECT_NAME":"STARLINK-1303","TIME_SYSTEM":"UTC","PERIAPSIS":"546.166","DECAY_DATE":null,"TLE_LINE1":"1 45396U 20019AN  22181.86753319  .00001844  00000-0  14265-3 0  9993","PERIOD":"95.592","APOAPSIS":"548.260","OBJECT_ID":"2020-019AN","ELEMENT_SET_NO":"999","INCLINATION":"53.0553","EPOCH":"2022-06-30T20:49:14.867616"},{"INCLINATION":"53.0551","EPOCH":"2022-06-30T21:05:09.639456","ELEMENT_SET_NO":"999","DECAY_DATE":null,"TLE_LINE1":"1 45397U 20019AP  22181.87858379  .00000813  00000-0  73492-4 0  9990","PERIOD":"95.593","APOAPSIS":"548.051","OBJECT_ID":"2020-019AP","GP_ID":"207174049","EPHEMERIS_TYPE":"0","OBJECT_NAME":"STARLINK-1307","TIME_SYSTEM":"UTC","PERIAPSIS":"546.412","COUNTRY_CODE":"US","MEAN_ELEMENT_THEORY":"SGP4","BSTAR":"0.00007349200000","MEAN_MOTION_DOT":"0.00000813","REF_FRAME":"TEME","FILE":"3505946","MEAN_ANOMALY":"277.6670","CENTER_NAME":"EARTH","ECCENTRICITY":"0.00011830","LAUNCH_DATE":"2020-03-18","CLASSIFICATION_TYPE":"U","RA_OF_ASC_NODE":"77.1663","MEAN_MOTION":"15.06394230","TLE_LINE2":"2 45397  53.0551  77.1663 0001183  82.4453 277.6670 15.06394230126689","REV_AT_EPOCH":"12668","ARG_OF_PERICENTER":"82.4453","MEAN_MOTION_DDOT":"0.0000000000000","SEMIMAJOR_AXIS":"6925.366","OBJECT_TYPE":"PAYLOAD","NORAD_CAT_ID":"45397","SITE":"AFETR","RCS_SIZE":"LARGE"},{"ELEMENT_SET_NO":"999","EPOCH":"2022-06-30T20:54:33.894432","INCLINATION":"53.0568","APOAPSIS":"548.274","OBJECT_ID":"2020-019AQ","PERIOD":"95.593","TLE_LINE1":"1 45398U 20019AQ  22181.87122563 -.00000100  00000-0  12190-4 0  9998","DECAY_DATE":null,"BSTAR":"0.00001219000000","MEAN_ELEMENT_THEORY":"SGP4","COUNTRY_CODE":"US","PERIAPSIS":"546.195","OBJECT_NAME":"STARLINK-1312","EPHEMERIS_TYPE":"0","TIME_SYSTEM":"UTC","GP_ID":"207174299","MEAN_MOTION_DOT":"-0.00000100","ECCENTRICITY":"0.00015010","MEAN_ANOMALY":"269.1724","CENTER_NAME":"EARTH","FILE":"3505946","REF_FRAME":"TEME","ARG_OF_PERICENTER":"90.9436","REV_AT_EPOCH":"12661","MEAN_MOTION":"15.06393203","TLE_LINE2":"2 45398  53.0568  77.2002 0001501  90.9436 269.1724 15.06393203126613","RA_OF_ASC_NODE":"77.2002","LAUNCH_DATE":"2020-03-18","CLASSIFICATION_TYPE":"U","MEAN_MOTION_DDOT":"0.0000000000000","SITE":"AFETR","RCS_SIZE":"LARGE","NORAD_CAT_ID":"45398","OBJECT_TYPE":"PAYLOAD","SEMIMAJOR_AXIS":"6925.369"},{"RA_OF_ASC_NODE":"67.0137","TLE_LINE2":"2 45399  53.0553  67.0137 0001929  64.7603 295.3586 15.06395805126812","MEAN_MOTION":"15.06395805","CLASSIFICATION_TYPE":"U","LAUNCH_DATE":"2020-03-18","REV_AT_EPOCH":"12681","ARG_OF_PERICENTER":"64.7603","MEAN_ANOMALY":"295.3586","CENTER_NAME":"EARTH","REF_FRAME":"TEME","FILE":"3505946","ECCENTRICITY":"0.00019290","OBJECT_TYPE":"PAYLOAD","SEMIMAJOR_AXIS":"6925.361","SITE":"AFETR","RCS_SIZE":"LARGE","NORAD_CAT_ID":"45399","MEAN_MOTION_DDOT":"0.0000000000000","PERIOD":"95.592","APOAPSIS":"548.562","OBJECT_ID":"2020-019AR","DECAY_DATE":null,"TLE_LINE1":"1 45399U 20019AR  22181.91268781  .00001319  00000-0  10743-3 0  9990","EPOCH":"2022-06-30T21:54:16.226784","INCLINATION":"53.0553","ELEMENT_SET_NO":"999","MEAN_MOTION_DOT":"0.00001319","PERIAPSIS":"545.891","GP_ID":"207175051","OBJECT_NAME":"STARLINK-1255","EPHEMERIS_TYPE":"0","TIME_SYSTEM":"UTC","MEAN_ELEMENT_THEORY":"SGP4","BSTAR":"0.00010743000000","COUNTRY_CODE":"US"},{"ELEMENT_SET_NO":"999","EPOCH":"2022-06-30T20:39:58.986432","INCLINATION":"53.0560","APOAPSIS":"548.410","OBJECT_ID":"2020-019AS","PERIOD":"95.593","TLE_LINE1":"1 45400U 20019AS  22181.86109938  .00001717  00000-0  13420-3 0  9992","DECAY_DATE":null,"BSTAR":"0.00013420000000","MEAN_ELEMENT_THEORY":"SGP4","COUNTRY_CODE":"US","PERIAPSIS":"546.072","EPHEMERIS_TYPE":"0","OBJECT_NAME":"STARLINK-1213","TIME_SYSTEM":"UTC","GP_ID":"207174800","MEAN_MOTION_DOT":"0.00001717","ECCENTRICITY":"0.00016880","MEAN_ANOMALY":"292.3449","CENTER_NAME":"EARTH","FILE":"3505946","REF_FRAME":"TEME","ARG_OF_PERICENTER":"67.7719","REV_AT_EPOCH":"12673","MEAN_MOTION":"15.06390924","TLE_LINE2":"2 45400  53.0560  67.2515 0001688  67.7719 292.3449 15.06390924126731","RA_OF_ASC_NODE":"67.2515","CLASSIFICATION_TYPE":"U","LAUNCH_DATE":"2020-03-18","MEAN_MOTION_DDOT":"0.0000000000000","SITE":"AFETR","RCS_SIZE":"LARGE","NORAD_CAT_ID":"45400","OBJECT_TYPE":"PAYLOAD","SEMIMAJOR_AXIS":"6925.376"},{"REF_FRAME":"TEME","FILE":"3505946","MEAN_ANOMALY":"296.0665","CENTER_NAME":"EARTH","ECCENTRICITY":"0.00016540","CLASSIFICATION_TYPE":"U","LAUNCH_DATE":"2020-03-18","RA_OF_ASC_NODE":"67.2783","TLE_LINE2":"2 45401  53.0560  67.2783 0001654  64.0495 296.0665 15.06388990126802","MEAN_MOTION":"15.06388990","REV_AT_EPOCH":"12680","ARG_OF_PERICENTER":"64.0495","MEAN_MOTION_DDOT":"0.0000000000000","SEMIMAJOR_AXIS":"6925.382","OBJECT_TYPE":"PAYLOAD","NORAD_CAT_ID":"45401","SITE":"AFETR","RCS_SIZE":"LARGE","INCLINATION":"53.0560","EPOCH":"2022-06-30T20:34:39.439488","ELEMENT_SET_NO":"999","DECAY_DATE":null,"TLE_LINE1":"1 45401U 20019AT  22181.85740092  .00001501  00000-0  11967-3 0  9999","PERIOD":"95.593","OBJECT_ID":"2020-019AT","APOAPSIS":"548.393","GP_ID":"207173550","TIME_SYSTEM":"UTC","EPHEMERIS_TYPE":"0","OBJECT_NAME":"STARLINK-1256","PERIAPSIS":"546.102","COUNTRY_CODE":"US","MEAN_ELEMENT_THEORY":"SGP4","BSTAR":"0.00011967000000","MEAN_MOTION_DOT":"0.00001501"}];
